{
    "links": {
        "self": "http://www.neowsapp.com/rest/v1/neo/3551329?api_key=iIulBulltgU6a56xZRHN4H3l9WmuAYTsLGpBGhQ2"
    },
    "id": "3551329",
    "neo_reference_id": "3551329",
    "name": "(2010 VB99)",
    "designation": "2010 VB99",
    "nasa_jpl_url": "http://ssd.jpl.nasa.gov/sbdb.cgi?sstr=3551329",
    "absolute_magnitude_h": 21.4,
    "estimated_diameter": {
        "kilometers": {
            "estimated_diameter_min": 0.1394938229,
            "estimated_diameter_max": 0.3119176705
        },
        "meters": {
            "estimated_diameter_min": 139.4938229344,
            "estimated_diameter_max": 311.9176705226
        },
        "miles": {
            "estimated_diameter_min": 0.0866774163,
            "estimated_diameter_max": 0.1938165949
        },
        "feet": {
            "estimated_diameter_min": 457.6569140361,
            "estimated_diameter_max": 1023.3519701574
        }
    },
    "is_potentially_hazardous_asteroid": false,
    "close_approach_data": [
        {
            "close_approach_date": "2010-11-14",
            "close_approach_date_full": "2010-Nov-14 06:25",
            "epoch_date_close_approach": 1289715900000,
            "relative_velocity": {
                "kilometers_per_second": "28.3924443438",
                "kilometers_per_hour": "102212.7996375846",
                "miles_per_hour": "63511.0587525869"
            },
            "miss_distance": {
                "astronomical": "0.0718349799",
                "lunar": "27.9438071811",
                "kilometers": "10746359.984532813",
                "miles": "6677478.4555982994"
            },
            "orbiting_body": "Earth"
        }
    ],
    "orbital_data": {
        "orbit_id": "9",
        "orbit_determination_date": "2017-04-06 08:55:45",
        "first_observation_date": "2010-11-11",
        "last_observation_date": "2010-11-18",
        "data_arc_in_days": 7,
        "observations_used": 25,
        "orbit_uncertainty": "9",
        "minimum_orbit_intersection": ".0515714",
        "jupiter_tisserand_invariant": "4.464",
        "epoch_osculation": "2455514.5",
        "eccentricity": ".4045849985099513",
        "semi_major_axis": "1.345991298471633",
        "inclination": "49.96102444864901",
        "ascending_node_longitude": "232.3132098851162",
        "orbital_period": "570.3767382196218",
        "perihelion_distance": ".8014234109850801",
        "perihelion_argument": "259.2274338840449",
        "aphelion_distance": "1.890559185958186",
        "perihelion_time": "2455570.740187877952",
        "mean_anomaly": "324.5033426516302",
        "mean_motion": ".6311617846192443",
        "equinox": "J2000",
        "orbit_class": {
            "orbit_class_type": "APO",
            "orbit_class_description": "Near-Earth asteroid orbits which cross the Earth’s orbit similar to that of 1862 Apollo",
            "orbit_class_range": "a (semi-major axis) > 1.0 AU; q (perihelion) < 1.017 AU"
        }
    },
    "is_sentry_object": false
}